NORAD_CAT_ID,OBJECT_NAME,OBJECT_TYPE,EPOCH,MEAN_MOTION,ECCENTRICITY,INCLINATION,RA_OF_ASC_NODE,ARG_OF_PERICENTER,MEAN_ANOMALY,BSTAR,MEAN_MOTION_DOT,MEAN_MOTION_DDOT,TLE_LINE0,TLE_LINE1,TLE_LINE2,SEMIMAJOR_AXIS,PERIOD,APOGEE,PERIGEE,DECAYED
52501.0,STARLINK-3907,PAYLOAD,2023-04-15 09:55:31,15.08840658,0.0001493,53.2153,124.1889,98.4505,261.6657,0.00010835,1.437e-05,0.0,0 STARLINK-3907,1 52501U 22049BC  23105.41355549  .00001437  00000-0  10835-3 0  9992,2 52501  53.2153 124.1889 0001493  98.4505 261.6657 15.08840658 52482,6917.878,95.438,540.776,538.711,0.0
52501.0,STARLINK-3907,PAYLOAD,2023-04-15 17:52:26,15.0883948,0.0001449,53.2157,122.7024,92.5542,267.5616,5.2939e-05,5.55e-06,0.0,0 STARLINK-3907,1 52501U 22049BC  23105.74475623  .00000555  00000-0  52939-4 0  9996,2 52501  53.2157 122.7024 0001449  92.5542 267.5616 15.08839480 52535,6917.882,95.438,540.749,538.745,0.0
52501.0,STARLINK-3907,PAYLOAD,2023-04-16 05:00:09,15.08834034,0.0001498,53.2157,120.6211,99.0101,261.1061,-7.2756e-05,-1.446e-05,0.0,0 STARLINK-3907,1 52501U 22049BC  23106.20843985 -.00001446  00000-0 -72756-4 0  9999,2 52501  53.2157 120.6211 0001498  99.0101 261.1061 15.08834034 52766,6917.899,95.438,540.8,538.727,0.0
52501.0,STARLINK-3907,PAYLOAD,2023-04-16 06:35:32,15.08836105,0.0001345,53.2166,120.3236,92.0107,268.1039,-7.2144e-06,-4.03e-06,0.0,0 STARLINK-3907,1 52501U 22049BC  23106.27468361 -.00000403  00000-0 -72144-5 0  9991,2 52501  53.2166 120.3236 0001345  92.0107 268.1039 15.08836105 52617,6917.892,95.438,540.688,538.827,0.0
52501.0,STARLINK-3907,PAYLOAD,2023-04-16 17:43:14,15.0884155,0.0001411,53.2164,118.2436,84.8125,275.3028,-2.4194e-05,-6.73e-06,0.0,0 STARLINK-3907,1 52501U 22049BC  23106.73836140 -.00000673  00000-0 -24194-4 0  9996,2 52501  53.2164 118.2436 0001411  84.8125 275.3028 15.08841550 52681,6917.876,95.437,540.717,538.765,0.0
52501.0,STARLINK-3907,PAYLOAD,2023-04-17 04:50:57,15.08819662,0.0001024,53.2165,116.1621,112.4518,247.6583,0.00034137,5.146e-05,0.0,0 STARLINK-3907,1 52501U 22049BC  23107.20204928  .00005146  00000-0  34137-3 0  9997,2 52501  53.2165 116.1621 0001024 112.4518 247.6583 15.08819662 52912,6917.943,95.439,540.516,539.099,0.0
52501.0,STARLINK-3907,PAYLOAD,2023-04-17 09:37:05,15.08838899,0.0001423,53.2167,115.2695,93.6229,266.4926,8.779e-05,1.109e-05,0.0,0 STARLINK-3907,1 52501U 22049BC  23107.40076239  .00001109  00000-0  87790-4 0  9990,2 52501  53.2167 115.2695 0001423  93.6229 266.4926 15.08838899 52785,6917.884,95.438,540.733,538.764,0.0
52501.0,STARLINK-3907,PAYLOAD,2023-04-17 17:34:01,15.08841292,0.0001398,53.2166,113.7829,90.0996,270.0156,8.4395e-05,1.056e-05,0.0,0 STARLINK-3907,1 52501U 22049BC  23107.73196130  .00001056  00000-0  84395-4 0  9998,2 52501  53.2166 113.7829 0001398  90.0996 270.0156 15.08841292 52832,6917.876,95.437,540.709,538.774,0.0
52501.0,STARLINK-3907,PAYLOAD,2023-04-18 07:52:29,15.08847051,0.000129,53.2163,111.1071,90.6518,269.4622,0.0001799,2.577e-05,0.0,0 STARLINK-3907,1 52501U 22049BC  23108.32811666  .00002577  00000-0  17990-3 0  9997,2 52501  53.2163 111.1071 0001290  90.6518 269.4622 15.08847051 52926,6917.859,95.437,540.616,538.831,0.0
52501.0,STARLINK-3907,PAYLOAD,2023-04-18 17:24:48,15.08840383,0.0001423,53.2163,109.3231,79.7262,280.3891,0.00011174,1.491e-05,0.0,0 STARLINK-3907,1 52501U 22049BC  23108.72556364  .00001491  00000-0  11174-3 0  9994,2 52501  53.2163 109.3231 0001423  79.7262 280.3891 15.08840383 53141,6917.879,95.438,540.729,538.76,0.0
52501.0,STARLINK-3907,PAYLOAD,2023-04-19 09:18:40,15.08836463,0.0001448,53.215,106.3473,83.674,276.4417,2.9978e-05,1.89e-06,0.0,0 STARLINK-3907,1 52501U 22049BC  23109.38796672  .00000189  00000-0  29978-4 0  9990,2 52501  53.2150 106.3473 0001448  83.6740 276.4417 15.08836463 53081,6917.891,95.438,540.758,538.754,0.0
52501.0,STARLINK-3907,PAYLOAD,2023-04-19 17:15:35,15.08840699,0.0001423,53.2158,104.8603,84.4413,275.6742,8.2015e-05,1.018e-05,0.0,0 STARLINK-3907,1 52501U 22049BC  23109.71916498  .00001018  00000-0  82015-4 0  9990,2 52501  53.2158 104.8603 0001423  84.4413 275.6742 15.08840699 53130,6917.878,95.438,540.728,538.759,0.0
52501.0,STARLINK-3907,PAYLOAD,2023-04-20 09:09:26,15.08850572,0.0001235,53.2153,101.8853,90.0546,270.0587,0.0001841,2.644e-05,0.0,0 STARLINK-3907,1 52501U 22049BC  23110.38155818  .00002644  00000-0  18410-3 0  9999,2 52501  53.2153 101.8853 0001235  90.0546 270.0587 15.08850572 53238,6917.848,95.437,540.567,538.859,0.0
52501.0,STARLINK-3907,PAYLOAD,2023-04-20 23:27:55,15.08837551,0.0001103,53.2153,99.2093,81.9318,278.1799,0.00014739,2.059e-05,0.0,0 STARLINK-3907,1 52501U 22049BC  23110.97772558  .00002059  00000-0  14739-3 0  9990,2 52501  53.2153  99.2093 0001103  81.9318 278.1799 15.08837551 53487,6917.888,95.438,540.516,538.99,0.0
52501.0,STARLINK-3907,PAYLOAD,2023-04-21 05:49:27,15.08841591,0.0001167,53.2155,98.0197,89.9082,270.2044,0.00016205,2.292e-05,0.0,0 STARLINK-3907,1 52501U 22049BC  23111.24268408  .00002292  00000-0  16205-3 0  9994,2 52501  53.2155  98.0197 0001167  89.9082 270.2044 15.08841591 53369,6917.876,95.437,540.548,538.933,0.0
52501.0,STARLINK-3907,PAYLOAD,2023-04-21 09:00:14,15.08844321,0.0001199,53.2157,97.4249,93.9111,266.2018,0.00017077,2.431e-05,0.0,0 STARLINK-3907,1 52501U 22049BC  23111.37516248  .00002431  00000-0  17077-3 0  9999,2 52501  53.2157  97.4249 0001199  93.9111 266.2018 15.08844321 53387,6917.867,95.437,540.562,538.903,0.0
52501.0,STARLINK-3907,PAYLOAD,2023-04-22 05:40:14,15.08843256,0.0001081,53.2158,93.5594,92.8991,267.2125,0.00011006,1.464e-05,0.0,0 STARLINK-3907,1 52501U 22049BC  23112.23628196  .00001464  00000-0  11006-3 0  9992,2 52501  53.2158  93.5594 0001081  92.8991 267.2125 15.08843256 53670,6917.87,95.437,540.483,538.988,0.0
52501.0,STARLINK-3907,PAYLOAD,2023-04-22 15:12:33,15.08845064,0.0001069,53.2152,91.7772,95.8519,264.2595,0.00015034,2.106e-05,0.0,0 STARLINK-3907,1 52501U 22049BC  23112.63372105  .00002106  00000-0  15034-3 0  9991,2 52501  53.2152  91.7772 0001069  95.8519 264.2595 15.08845064 53573,6917.865,95.437,540.469,538.99,0.0
52501.0,STARLINK-3907,PAYLOAD,2023-04-23 07:06:25,15.08837829,0.0001138,53.2161,88.8027,90.6321,269.4801,1.7928e-05,-2e-08,0.0,0 STARLINK-3907,1 52501U 22049BC  23113.29612541 -.00000002  00000-0  17928-4 0  9994,2 52501  53.2161  88.8027 0001138  90.6321 269.4801 15.08837829 53672,6917.887,95.438,540.539,538.965,0.0
52501.0,STARLINK-3907,PAYLOAD,2023-04-24 08:32:34,15.08866939,0.0001075,53.216,84.0443,101.1375,258.9738,0.00058964,9.116e-05,0.0,0 STARLINK-3907,1 52501U 22049BC  23114.35595469  .00009116  00000-0  58964-3 0  9999,2 52501  53.2160  84.0443 0001075 101.1375 258.9738 15.08866939 53999,6917.798,95.436,540.407,538.919,0.0
52501.0,STARLINK-3907,PAYLOAD,2023-04-25 03:37:11,15.08856552,0.000126,53.2161,80.4733,82.572,277.5415,0.00024336,3.589e-05,0.0,0 STARLINK-3907,1 52501U 22049BC  23115.15083243  .00003589  00000-0  24336-3 0  9994,2 52501  53.2161  80.4733 0001260  82.5720 277.5415 15.08856552 54118,6917.83,95.437,540.566,538.823,0.0
52501.0,STARLINK-3907,PAYLOAD,2023-04-25 06:47:58,15.08858039,0.0001424,53.2177,79.8791,92.7541,267.3614,0.00029868,4.471e-05,0.0,0 STARLINK-3907,1 52501U 22049BC  23115.28331120  .00004471  00000-0  29868-3 0  9994,2 52501  53.2177  79.8791 0001424  92.7541 267.3614 15.08858039 53970,6917.825,95.436,540.675,538.705,0.0
52501.0,STARLINK-3907,PAYLOAD,2023-04-26 01:52:37,15.0881087,0.0001497,53.2187,76.3105,77.2171,282.8989,-0.00054018,-8.868e-05,0.0,0 STARLINK-3907,1 52501U 22049BC  23116.07821627 -.00008868  00000-0 -54018-3 0  9999,2 52501  53.2187  76.3105 0001497  77.2171 282.8989 15.08810870 54259,6917.969,95.439,540.87,538.799,0.0
52501.0,STARLINK-3907,PAYLOAD,2023-04-26 06:38:47,15.08813743,0.0001303,53.2185,75.4185,99.3555,260.7585,-0.00038265,-6.368e-05,0.0,0 STARLINK-3907,1 52501U 22049BC  23116.27694181 -.00006368  00000-0 -38265-3 0  9993,2 52501  53.2185  75.4185 0001303  99.3555 260.7585 15.08813743 54127,6917.961,95.439,540.727,538.924,0.0
52501.0,STARLINK-3907,PAYLOAD,2023-04-26 14:35:43,15.08819415,0.0001125,53.2187,73.9325,97.9242,262.1878,-0.00018052,-3.158e-05,0.0,0 STARLINK-3907,1 52501U 22049BC  23116.60814267 -.00003158  00000-0 -18052-3 0  9995,2 52501  53.2187  73.9325 0001125  97.9242 262.1878 15.08819415 54175,6917.943,95.439,540.587,539.03,0.0
52501.0,STARLINK-3907,PAYLOAD,2023-04-27 03:18:48,15.08835932,0.0001181,53.2171,71.5591,69.767,290.3449,6.8359e-05,8e-06,0.0,0 STARLINK-3907,1 52501U 22049BC  23117.13805743  .00000800  00000-0  68359-4 0  9998,2 52501  53.2171  71.5591 0001181  69.7670 290.3449 15.08835932 54417,6917.893,95.438,540.575,538.941,0.0
52501.0,STARLINK-3907,PAYLOAD,2023-04-27 06:29:34,15.08838814,0.0001179,53.217,70.9631,76.7066,283.4058,0.00014496,2.02e-05,0.0,0 STARLINK-3907,1 52501U 22049BC  23117.27053714  .00002020  00000-0  14496-3 0  9994,2 52501  53.2170  70.9631 0001179  76.7066 283.4058 15.08838814 54273,6917.884,95.438,540.565,538.933,0.0
52501.0,STARLINK-3907,PAYLOAD,2023-04-28 06:20:20,15.08886632,0.0001252,53.2165,66.5009,80.6935,279.4199,0.0011215,0.00017628,0.0,0 STARLINK-3907,1 52501U 22049BC  23118.26412760  .00017628  00000-0  11215-2 0  9999,2 52501  53.2165  66.5009 0001252  80.6935 279.4199 15.08886632 54584,6917.738,95.435,540.469,538.737,0.0
52501.0,STARLINK-3907,PAYLOAD,2023-04-29 04:35:44,15.08851338,0.0001082,53.2171,62.3379,97.5366,262.5749,0.00037019,5.61e-05,0.0,0 STARLINK-3907,1 52501U 22049BC  23119.19148868  .00005610  00000-0  37019-3 0  9996,2 52501  53.2171  62.3379 0001082  97.5366 262.5749 15.08851338 54726,6917.846,95.437,540.459,538.962,0.0
52501.0,STARLINK-3907,PAYLOAD,2023-04-29 06:11:07,15.08851519,0.000109,53.2172,62.0402,99.4408,260.6707,0.00046278,7.087e-05,0.0,0 STARLINK-3907,1 52501U 22049BC  23119.25772854  .00007087  00000-0  46278-3 0  9998,2 52501  53.2172  62.0402 0001090  99.4408 260.6707 15.08851519 54575,6917.845,95.437,540.464,538.956,0.0
